{
  "type": "FeatureCollection",
  "features": [
    {
      "type": "Feature",
      "properties": {
        "norad_id": 30326,
        "name": "FENGYUN 1C DEB",
        "group": "fengyun-1c-debris",
        "lat": 52.73223751051509,
        "lon": -143.9131460925253,
        "alt_km": 835.410026698215,
        "timestamp": "2025-12-05T18:53:13.557513+00:00",
        "meta_object_name": "FENGYUN 1C DEB",
        "meta_object_id": "1999-025AAM",
        "meta_epoch": "2025-12-05T06:30:12.228768",
        "meta_mean_motion": 13.85469634,
        "meta_eccentricity": 0.01425894,
        "meta_inclination": 98.6544,
        "meta_ra_of_asc_node": 227.1564,
        "meta_arg_of_pericenter": 50.815,
        "meta_mean_anomaly": 310.5572,
        "meta_ephemeris_type": 0,
        "meta_classification_type": "U",
        "meta_norad_cat_id": 30326,
        "meta_element_set_no": 999,
        "meta_rev_at_epoch": 95352,
        "meta_bstar": 0.00029717195,
        "meta_mean_motion_dot": 3.28e-06,
        "meta_mean_motion_ddot": 0,
        "tle_line1": "1 30326U 99025AAM 25339.27097487  .00000328  00000+0  29717-3 0  9996",
        "tle_line2": "2 30326  98.6544 227.1564 0142589  50.8150 310.5572 13.85469634953523"
      },
      "geometry": {
        "type": "Point",
        "coordinates": [
          -143.9131460925253,
          52.73223751051509
        ]
      }
    },
    {
      "type": "Feature",
      "properties": {
        "norad_id": 30327,
        "name": "FENGYUN 1C DEB",
        "group": "fengyun-1c-debris",
        "lat": -13.8156171138651,
        "lon": 52.33899643590218,
        "alt_km": 764.35212315228,
        "timestamp": "2025-12-05T18:53:13.557523+00:00",
        "meta_object_name": "FENGYUN 1C DEB",
        "meta_object_id": "1999-025AAN",
        "meta_epoch": "2025-12-02T12:39:45.154080",
        "meta_mean_motion": 14.17871426,
        "meta_eccentricity": 0.01164753,
        "meta_inclination": 98.4441,
        "meta_ra_of_asc_node": 231.3322,
        "meta_arg_of_pericenter": 172.8137,
        "meta_mean_anomaly": 312.7608,
        "meta_ephemeris_type": 0,
        "meta_classification_type": "U",
        "meta_norad_cat_id": 30327,
        "meta_element_set_no": 999,
        "meta_rev_at_epoch": 96298,
        "meta_bstar": 0.0021839085,
        "meta_mean_motion_dot": 4.732e-05,
        "meta_mean_motion_ddot": 0,
        "tle_line1": "1 30327U 99025AAN 25336.52760595  .00004732  00000+0  21839-2 0  9998",
        "tle_line2": "2 30327  98.4441 231.3322 0116475 172.8137 312.7608 14.17871426962988"
      },
      "geometry": {
        "type": "Point",
        "coordinates": [
          52.33899643590218,
          -13.8156171138651
        ]
      }
    },
    {
      "type": "Feature",
      "properties": {
        "norad_id": 30328,
        "name": "FENGYUN 1C DEB",
        "group": "fengyun-1c-debris",
        "lat": 53.69023154945313,
        "lon": -177.8718031276662,
        "alt_km": 843.123254912337,
        "timestamp": "2025-12-05T18:53:13.557534+00:00",
        "meta_object_name": "FENGYUN 1C DEB",
        "meta_object_id": "1999-025AAP",
        "meta_epoch": "2025-12-05T06:28:05.564640",
        "meta_mean_motion": 14.12467981,
        "meta_eccentricity": 0.00053807,
        "meta_inclination": 98.6866,
        "meta_ra_of_asc_node": 349.6188,
        "meta_arg_of_pericenter": 172.5524,
        "meta_mean_anomaly": 203.104,
        "meta_ephemeris_type": 0,
        "meta_classification_type": "U",
        "meta_norad_cat_id": 30328,
        "meta_element_set_no": 999,
        "meta_rev_at_epoch": 97159,
        "meta_bstar": 0.00022444395,
        "meta_mean_motion_dot": 3.72e-06,
        "meta_mean_motion_ddot": 0,
        "tle_line1": "1 30328U 99025AAP 25339.26950885  .00000372  00000+0  22444-3 0  9996",
        "tle_line2": "2 30328  98.6866 349.6188 0005380 172.5524 203.1040 14.12467981971596"
      },
      "geometry": {
        "type": "Point",
        "coordinates": [
          -177.8718031276662,
          53.69023154945313
        ]
      }
    },
    {
      "type": "Feature",
      "properties": {
        "norad_id": 30329,
        "name": "FENGYUN 1C DEB",
        "group": "fengyun-1c-debris",
        "lat": 74.47535570250218,
        "lon": 115.19859399078733,
        "alt_km": 862.9944289737996,
        "timestamp": "2025-12-05T18:53:13.557569+00:00",
        "meta_object_name": "FENGYUN 1C DEB",
        "meta_object_id": "1999-025AAQ",
        "meta_epoch": "2025-12-05T06:59:53.255040",
        "meta_mean_motion": 13.86728785,
        "meta_eccentricity": 0.01423789,
        "meta_inclination": 99.2614,
        "meta_ra_of_asc_node": 258.7373,
        "meta_arg_of_pericenter": 55.3846,
        "meta_mean_anomaly": 94.2012,
        "meta_ephemeris_type": 0,
        "meta_classification_type": "U",
        "meta_norad_cat_id": 30329,
        "meta_element_set_no": 999,
        "meta_rev_at_epoch": 95307,
        "meta_bstar": 0.0007159169,
        "meta_mean_motion_dot": 8.6e-06,
        "meta_mean_motion_ddot": 0,
        "tle_line1": "1 30329U 99025AAQ 25339.29158860  .00000860  00000+0  71592-3 0  9993",
        "tle_line2": "2 30329  99.2614 258.7373 0142378  55.3846  94.2012 13.86728785953078"
      },
      "geometry": {
        "type": "Point",
        "coordinates": [
          115.19859399078733,
          74.47535570250218
        ]
      }
    },
    {
      "type": "Feature",
      "properties": {
        "norad_id": 30330,
        "name": "FENGYUN 1C DEB",
        "group": "fengyun-1c-debris",
        "lat": -73.10809079664614,
        "lon": 121.53206313392356,
        "alt_km": 877.6399168393191,
        "timestamp": "2025-12-05T18:53:13.557580+00:00",
        "meta_object_name": "FENGYUN 1C DEB",
        "meta_object_id": "1999-025AAR",
        "meta_epoch": "2025-12-04T22:49:18.692256",
        "meta_mean_motion": 13.82025459,
        "meta_eccentricity": 0.0187573,
        "meta_inclination": 98.8853,
        "meta_ra_of_asc_node": 331.7499,
        "meta_arg_of_pericenter": 205.8118,
        "meta_mean_anomaly": 210.699,
        "meta_ephemeris_type": 0,
        "meta_classification_type": "U",
        "meta_norad_cat_id": 30330,
        "meta_element_set_no": 999,
        "meta_rev_at_epoch": 94550,
        "meta_bstar": 0.0022041,
        "meta_mean_motion_dot": 2.668e-05,
        "meta_mean_motion_ddot": 0,
        "tle_line1": "1 30330U 99025AAR 25338.95091079  .00002668  00000+0  22041-2 0  9997",
        "tle_line2": "2 30330  98.8853 331.7499 0187573 205.8118 210.6990 13.82025459945503"
      },
      "geometry": {
        "type": "Point",
        "coordinates": [
          121.53206313392356,
          -73.10809079664614
        ]
      }
    },
    {
      "type": "Feature",
      "properties": {
        "norad_id": 30331,
        "name": "FENGYUN 1C DEB",
        "group": "fengyun-1c-debris",
        "lat": 81.0354771739856,
        "lon": -74.68339072135423,
        "alt_km": 861.0110509774413,
        "timestamp": "2025-12-05T18:53:13.557590+00:00",
        "meta_object_name": "FENGYUN 1C DEB",
        "meta_object_id": "1999-025AAS",
        "meta_epoch": "2025-12-04T08:24:41.179968",
        "meta_mean_motion": 13.9781598,
        "meta_eccentricity": 0.0096977,
        "meta_inclination": 98.9582,
        "meta_ra_of_asc_node": 13.1319,
        "meta_arg_of_pericenter": 31.102,
        "meta_mean_anomaly": 33.1491,
        "meta_ephemeris_type": 0,
        "meta_classification_type": "U",
        "meta_norad_cat_id": 30331,
        "meta_element_set_no": 999,
        "meta_rev_at_epoch": 96002,
        "meta_bstar": 0.00072927,
        "meta_mean_motion_dot": 1.031e-05,
        "meta_mean_motion_ddot": 0,
        "tle_line1": "1 30331U 99025AAS 25338.35047662  .00001031  00000+0  72927-3 0  9993",
        "tle_line2": "2 30331  98.9582  13.1319 0096977  31.1020  33.1491 13.97815980960025"
      },
      "geometry": {
        "type": "Point",
        "coordinates": [
          -74.68339072135423,
          81.0354771739856
        ]
      }
    },
    {
      "type": "Feature",
      "properties": {
        "norad_id": 30332,
        "name": "FENGYUN 1C DEB",
        "group": "fengyun-1c-debris",
        "lat": -76.60587886662735,
        "lon": -2.8375484428570035,
        "alt_km": 1104.170867511304,
        "timestamp": "2025-12-05T18:53:13.557600+00:00",
        "meta_object_name": "FENGYUN 1C DEB",
        "meta_object_id": "1999-025AAT",
        "meta_epoch": "2025-12-04T20:54:33.617952",
        "meta_mean_motion": 13.76699743,
        "meta_eccentricity": 0.0177957,
        "meta_inclination": 99.7141,
        "meta_ra_of_asc_node": 310.2283,
        "meta_arg_of_pericenter": 123.3635,
        "meta_mean_anomaly": 299.0133,
        "meta_ephemeris_type": 0,
        "meta_classification_type": "U",
        "meta_norad_cat_id": 30332,
        "meta_element_set_no": 999,
        "meta_rev_at_epoch": 94607,
        "meta_bstar": 0.00058565,
        "meta_mean_motion_dot": 6.01e-06,
        "meta_mean_motion_ddot": 0,
        "tle_line1": "1 30332U 99025AAT 25338.87122243  .00000601  00000+0  58565-3 0  9994",
        "tle_line2": "2 30332  99.7141 310.2283 0177957 123.3635 299.0133 13.76699743946070"
      },
      "geometry": {
        "type": "Point",
        "coordinates": [
          -2.8375484428570035,
          -76.60587886662735
        ]
      }
    }
  ]
}